STARLINK-35496          
1 66114U 25237A   25322.91671296 -.00635934  00000+0 -16850-1 0  9994
2 66114  53.1599 199.7302 0001096 107.8256 196.5683 15.39964195  5643
STARLINK-35428          
1 66115U 25237B   25322.91671296  .00014070  00000+0  36125-3 0  9994
2 66115  53.1596 199.8832 0001248 103.5348 123.7553 15.39605772  5645
STARLINK-35573          
1 66116U 25237C   25322.40436390  .00101610  00000+0  18139-2 0  9994
2 66116  53.1611 202.1102 0002430  37.3147 322.8030 15.49267070  5498
STARLINK-35572          
1 66117U 25237D   25322.91671296  .00008041  00000+0  21086-3 0  9997
2 66117  53.1599 199.8321 0001144  92.6260 160.4148 15.39611291  5640
STARLINK-35468          
1 66118U 25237E   25322.91671296  .00011228  00000+0  29036-3 0  9992
2 66118  53.1592 199.9339 0001223  89.3629 112.1689 15.39611068  5640
STARLINK-35547          
1 66119U 25237F   25320.91892887  .00112881  00000+0  20069-2 0  9995
2 66119  53.1599 209.1905 0000836  83.5831 276.5273 15.49330623  5269
STARLINK-35553          
1 66120U 25237G   25322.91671296  .00012003  00000+0  30979-3 0  9995
2 66120  53.1601 199.7807 0001376  88.3695 190.4496 15.39601023  5648
STARLINK-35631          
1 66121U 25237H   25322.91903896  .00065803  00000+0  11841-2 0  9992
2 66121  53.1611 199.6312 0002447   4.5875 355.5156 15.49238877  5573
STARLINK-35653          
1 66122U 25237J   25322.91832956  .00063200  00000+0  11324-2 0  9996
2 66122  53.1603 199.6271 0001182  90.5061 269.6083 15.49378799  5578
STARLINK-35628          
1 66123U 25237K   25322.91799640  .00057669  00000+0  10358-2 0  9997
2 66123  53.1609 199.6251 0001466  90.1222 269.9955 15.49350162  5578
STARLINK-35645          
1 66124U 25237L   25322.91765321  .00061241  00000+0  10998-2 0  9998
2 66124  53.1612 199.6234 0001157  77.2702 282.8436 15.49329035  5573
STARLINK-35649          
1 66125U 25237M   25322.65927706  .00093651  00000+0  16674-2 0  9994
2 66125  53.1607 200.8545 0001218 307.9693  52.1206 15.49384188  5537
