CCSDS_OMM_VERS = 2.0
CREATION_DATE  = 
ORIGINATOR     = 

OBJECT_NAME    = STARLINK-35496
OBJECT_ID      = 2025-237A
CENTER_NAME    = EARTH
REF_FRAME      = TEME
TIME_SYSTEM    = UTC
MEAN_ELEMENT_THEORY = SGP/SGP4

EPOCH          = 2025-11-18T22:00:03.999744
MEAN_MOTION    = 15.39964195
ECCENTRICITY   = .0001096
INCLINATION    = 53.1599
RA_OF_ASC_NODE = 199.7302
ARG_OF_PERICENTER = 107.8256
MEAN_ANOMALY   = 196.5683

EPHEMERIS_TYPE = 0
CLASSIFICATION_TYPE = U
NORAD_CAT_ID   = 66114
ELEMENT_SET_NO = 999
REV_AT_EPOCH   = 564
BSTAR          = -.16850349E-1
MEAN_MOTION_DOT = -.635934E-2
MEAN_MOTION_DDOT = 0

CCSDS_OMM_VERS = 2.0
CREATION_DATE  = 
ORIGINATOR     = 

OBJECT_NAME    = STARLINK-35428
OBJECT_ID      = 2025-237B
CENTER_NAME    = EARTH
REF_FRAME      = TEME
TIME_SYSTEM    = UTC
MEAN_ELEMENT_THEORY = SGP/SGP4

EPOCH          = 2025-11-18T22:00:03.999744
MEAN_MOTION    = 15.39605772
ECCENTRICITY   = .0001248
INCLINATION    = 53.1596
RA_OF_ASC_NODE = 199.8832
ARG_OF_PERICENTER = 103.5348
MEAN_ANOMALY   = 123.7553

EPHEMERIS_TYPE = 0
CLASSIFICATION_TYPE = U
NORAD_CAT_ID   = 66115
ELEMENT_SET_NO = 999
REV_AT_EPOCH   = 564
BSTAR          = .36125436E-3
MEAN_MOTION_DOT = .1407E-3
MEAN_MOTION_DDOT = 0

CCSDS_OMM_VERS = 2.0
CREATION_DATE  = 
ORIGINATOR     = 

OBJECT_NAME    = STARLINK-35573
OBJECT_ID      = 2025-237C
CENTER_NAME    = EARTH
REF_FRAME      = TEME
TIME_SYSTEM    = UTC
MEAN_ELEMENT_THEORY = SGP/SGP4

EPOCH          = 2025-11-18T09:42:17.040960
MEAN_MOTION    = 15.49267070
ECCENTRICITY   = .00024307
INCLINATION    = 53.1611
RA_OF_ASC_NODE = 202.1102
ARG_OF_PERICENTER = 37.3147
MEAN_ANOMALY   = 322.8030

EPHEMERIS_TYPE = 0
CLASSIFICATION_TYPE = U
NORAD_CAT_ID   = 66116
ELEMENT_SET_NO = 999
REV_AT_EPOCH   = 549
BSTAR          = .18139223E-2
MEAN_MOTION_DOT = .10161E-2
MEAN_MOTION_DDOT = 0

CCSDS_OMM_VERS = 2.0
CREATION_DATE  = 
ORIGINATOR     = 

OBJECT_NAME    = STARLINK-35572
OBJECT_ID      = 2025-237D
CENTER_NAME    = EARTH
REF_FRAME      = TEME
TIME_SYSTEM    = UTC
MEAN_ELEMENT_THEORY = SGP/SGP4

EPOCH          = 2025-11-18T22:00:03.999744
MEAN_MOTION    = 15.39611291
ECCENTRICITY   = .00011443
INCLINATION    = 53.1599
RA_OF_ASC_NODE = 199.8321
ARG_OF_PERICENTER = 92.6260
MEAN_ANOMALY   = 160.4148

EPHEMERIS_TYPE = 0
CLASSIFICATION_TYPE = U
NORAD_CAT_ID   = 66117
ELEMENT_SET_NO = 999
REV_AT_EPOCH   = 564
BSTAR          = .21086171E-3
MEAN_MOTION_DOT = .8041E-4
MEAN_MOTION_DDOT = 0

CCSDS_OMM_VERS = 2.0
CREATION_DATE  = 
ORIGINATOR     = 

OBJECT_NAME    = STARLINK-35468
OBJECT_ID      = 2025-237E
CENTER_NAME    = EARTH
REF_FRAME      = TEME
TIME_SYSTEM    = UTC
MEAN_ELEMENT_THEORY = SGP/SGP4

EPOCH          = 2025-11-18T22:00:03.999744
MEAN_MOTION    = 15.39611068
ECCENTRICITY   = .00012239
INCLINATION    = 53.1592
RA_OF_ASC_NODE = 199.9339
ARG_OF_PERICENTER = 89.3629
MEAN_ANOMALY   = 112.1689

EPHEMERIS_TYPE = 0
CLASSIFICATION_TYPE = U
NORAD_CAT_ID   = 66118
ELEMENT_SET_NO = 999
REV_AT_EPOCH   = 564
BSTAR          = .29036215E-3
MEAN_MOTION_DOT = .11228E-3
MEAN_MOTION_DDOT = 0

CCSDS_OMM_VERS = 2.0
CREATION_DATE  = 
ORIGINATOR     = 

OBJECT_NAME    = STARLINK-35547
OBJECT_ID      = 2025-237F
CENTER_NAME    = EARTH
REF_FRAME      = TEME
TIME_SYSTEM    = UTC
MEAN_ELEMENT_THEORY = SGP/SGP4

EPOCH          = 2025-11-16T22:03:15.454368
MEAN_MOTION    = 15.49330623
ECCENTRICITY   = .00008361
INCLINATION    = 53.1599
RA_OF_ASC_NODE = 209.1905
ARG_OF_PERICENTER = 83.5831
MEAN_ANOMALY   = 276.5273

EPHEMERIS_TYPE = 0
CLASSIFICATION_TYPE = U
NORAD_CAT_ID   = 66119
ELEMENT_SET_NO = 999
REV_AT_EPOCH   = 526
BSTAR          = .2006936E-2
MEAN_MOTION_DOT = .112881E-2
MEAN_MOTION_DDOT = 0

CCSDS_OMM_VERS = 2.0
CREATION_DATE  = 
ORIGINATOR     = 

OBJECT_NAME    = STARLINK-35553
OBJECT_ID      = 2025-237G
CENTER_NAME    = EARTH
REF_FRAME      = TEME
TIME_SYSTEM    = UTC
MEAN_ELEMENT_THEORY = SGP/SGP4

EPOCH          = 2025-11-18T22:00:03.999744
MEAN_MOTION    = 15.39601023
ECCENTRICITY   = .00013766
INCLINATION    = 53.1601
RA_OF_ASC_NODE = 199.7807
ARG_OF_PERICENTER = 88.3695
MEAN_ANOMALY   = 190.4496

EPHEMERIS_TYPE = 0
CLASSIFICATION_TYPE = U
NORAD_CAT_ID   = 66120
ELEMENT_SET_NO = 999
REV_AT_EPOCH   = 564
BSTAR          = .30978641E-3
MEAN_MOTION_DOT = .12003E-3
MEAN_MOTION_DDOT = 0

CCSDS_OMM_VERS = 2.0
CREATION_DATE  = 
ORIGINATOR     = 

OBJECT_NAME    = STARLINK-35631
OBJECT_ID      = 2025-237H
CENTER_NAME    = EARTH
REF_FRAME      = TEME
TIME_SYSTEM    = UTC
MEAN_ELEMENT_THEORY = SGP/SGP4

EPOCH          = 2025-11-18T22:03:24.966144
MEAN_MOTION    = 15.49238877
ECCENTRICITY   = .00024472
INCLINATION    = 53.1611
RA_OF_ASC_NODE = 199.6312
ARG_OF_PERICENTER = 4.5875
MEAN_ANOMALY   = 355.5156

EPHEMERIS_TYPE = 0
CLASSIFICATION_TYPE = U
NORAD_CAT_ID   = 66121
ELEMENT_SET_NO = 999
REV_AT_EPOCH   = 557
BSTAR          = .11841009E-2
MEAN_MOTION_DOT = .65803E-3
MEAN_MOTION_DDOT = 0

CCSDS_OMM_VERS = 2.0
CREATION_DATE  = 
ORIGINATOR     = 

OBJECT_NAME    = STARLINK-35653
OBJECT_ID      = 2025-237J
CENTER_NAME    = EARTH
REF_FRAME      = TEME
TIME_SYSTEM    = UTC
MEAN_ELEMENT_THEORY = SGP/SGP4

EPOCH          = 2025-11-18T22:02:23.673984
MEAN_MOTION    = 15.49378799
ECCENTRICITY   = .00011822
INCLINATION    = 53.1603
RA_OF_ASC_NODE = 199.6271
ARG_OF_PERICENTER = 90.5061
MEAN_ANOMALY   = 269.6083

EPHEMERIS_TYPE = 0
CLASSIFICATION_TYPE = U
NORAD_CAT_ID   = 66122
ELEMENT_SET_NO = 999
REV_AT_EPOCH   = 557
BSTAR          = .11324422E-2
MEAN_MOTION_DOT = .632E-3
MEAN_MOTION_DDOT = 0

CCSDS_OMM_VERS = 2.0
CREATION_DATE  = 
ORIGINATOR     = 

OBJECT_NAME    = STARLINK-35628
OBJECT_ID      = 2025-237K
CENTER_NAME    = EARTH
REF_FRAME      = TEME
TIME_SYSTEM    = UTC
MEAN_ELEMENT_THEORY = SGP/SGP4

EPOCH          = 2025-11-18T22:01:54.888960
MEAN_MOTION    = 15.49350162
ECCENTRICITY   = .00014662
INCLINATION    = 53.1609
RA_OF_ASC_NODE = 199.6251
ARG_OF_PERICENTER = 90.1222
MEAN_ANOMALY   = 269.9955

EPHEMERIS_TYPE = 0
CLASSIFICATION_TYPE = U
NORAD_CAT_ID   = 66123
ELEMENT_SET_NO = 999
REV_AT_EPOCH   = 557
BSTAR          = .10357966E-2
MEAN_MOTION_DOT = .57669E-3
MEAN_MOTION_DDOT = 0

CCSDS_OMM_VERS = 2.0
CREATION_DATE  = 
ORIGINATOR     = 

OBJECT_NAME    = STARLINK-35645
OBJECT_ID      = 2025-237L
CENTER_NAME    = EARTH
REF_FRAME      = TEME
TIME_SYSTEM    = UTC
MEAN_ELEMENT_THEORY = SGP/SGP4

EPOCH          = 2025-11-18T22:01:25.237344
MEAN_MOTION    = 15.49329035
ECCENTRICITY   = .00011576
INCLINATION    = 53.1612
RA_OF_ASC_NODE = 199.6234
ARG_OF_PERICENTER = 77.2702
MEAN_ANOMALY   = 282.8436

EPHEMERIS_TYPE = 0
CLASSIFICATION_TYPE = U
NORAD_CAT_ID   = 66124
ELEMENT_SET_NO = 999
REV_AT_EPOCH   = 557
BSTAR          = .10997754E-2
MEAN_MOTION_DOT = .61241E-3
MEAN_MOTION_DDOT = 0

CCSDS_OMM_VERS = 2.0
CREATION_DATE  = 
ORIGINATOR     = 

OBJECT_NAME    = STARLINK-35649
OBJECT_ID      = 2025-237M
CENTER_NAME    = EARTH
REF_FRAME      = TEME
TIME_SYSTEM    = UTC
MEAN_ELEMENT_THEORY = SGP/SGP4

EPOCH          = 2025-11-18T15:49:21.537984
MEAN_MOTION    = 15.49384188
ECCENTRICITY   = .00012181
INCLINATION    = 53.1607
RA_OF_ASC_NODE = 200.8545
ARG_OF_PERICENTER = 307.9693
MEAN_ANOMALY   = 52.1206

EPHEMERIS_TYPE = 0
CLASSIFICATION_TYPE = U
NORAD_CAT_ID   = 66125
ELEMENT_SET_NO = 999
REV_AT_EPOCH   = 553
BSTAR          = .1667375E-2
MEAN_MOTION_DOT = .93651E-3
MEAN_MOTION_DDOT = 0

